{
  "type": "FeatureCollection",
  "features": [
    {
      "type": "Feature",
      "properties": {
        "norad_id": 26766,
        "name": "INTELSAT 10 (IS-10)",
        "group": "intelsat",
        "lat": -5.053012473684308,
        "lon": 25.40251436995435,
        "alt_km": 36132.915125360494,
        "timestamp": "2025-12-06T09:34:16.585153+00:00",
        "meta_object_name": "INTELSAT 10 (IS-10)",
        "meta_object_id": "2001-019A",
        "meta_epoch": "2025-12-05T12:47:33.691776",
        "meta_mean_motion": 0.99078635,
        "meta_eccentricity": 0.00078343,
        "meta_inclination": 8.6118,
        "meta_ra_of_asc_node": 61.2275,
        "meta_arg_of_pericenter": 219.6027,
        "meta_mean_anomaly": 155.367,
        "meta_ephemeris_type": 0,
        "meta_classification_type": "U",
        "meta_norad_cat_id": 26766,
        "meta_element_set_no": 999,
        "meta_rev_at_epoch": 4366,
        "meta_bstar": 0,
        "meta_mean_motion_dot": -2.14e-06,
        "meta_mean_motion_ddot": 0,
        "tle_line1": "1 26766U 01019A   25339.53302884 -.00000214  00000+0  00000+0 0  9999",
        "tle_line2": "2 26766   8.6118  61.2275 0007834 219.6027 155.3670  0.99078635 43668"
      },
      "geometry": {
        "type": "Point",
        "coordinates": [
          25.40251436995435,
          -5.053012473684308
        ]
      }
    },
    {
      "type": "Feature",
      "properties": {
        "norad_id": 26900,
        "name": "INTELSAT 902 (IS-902)",
        "group": "intelsat",
        "lat": 5.610402721835564,
        "lon": 168.82713344483744,
        "alt_km": 35783.29919247168,
        "timestamp": "2025-12-06T09:34:16.585177+00:00",
        "meta_object_name": "INTELSAT 902 (IS-902)",
        "meta_object_id": "2001-039A",
        "meta_epoch": "2025-12-01T16:59:59.311968",
        "meta_mean_motion": 1.00270327,
        "meta_eccentricity": 0.00043097,
        "meta_inclination": 5.6187,
        "meta_ra_of_asc_node": 74.2002,
        "meta_arg_of_pericenter": 175.119,
        "meta_mean_anomaly": 26.3816,
        "meta_ephemeris_type": 0,
        "meta_classification_type": "U",
        "meta_norad_cat_id": 26900,
        "meta_element_set_no": 999,
        "meta_rev_at_epoch": 8871,
        "meta_bstar": 0,
        "meta_mean_motion_dot": -2.63e-06,
        "meta_mean_motion_ddot": 0,
        "tle_line1": "1 26900U 01039A   25335.70832537 -.00000263  00000+0  00000+0 0  9993",
        "tle_line2": "2 26900   5.6187  74.2002 0004309 175.1190  26.3816  1.00270327 88713"
      },
      "geometry": {
        "type": "Point",
        "coordinates": [
          168.82713344483744,
          5.610402721835564
        ]
      }
    },
    {
      "type": "Feature",
      "properties": {
        "norad_id": 27380,
        "name": "INTELSAT 904 (IS-904)",
        "group": "intelsat",
        "lat": 5.7775808684983545,
        "lon": -172.38761780851343,
        "alt_km": 35786.383014652165,
        "timestamp": "2025-12-06T09:34:16.585194+00:00",
        "meta_object_name": "INTELSAT 904 (IS-904)",
        "meta_object_id": "2002-007A",
        "meta_epoch": "2025-12-05T15:15:34.511904",
        "meta_mean_motion": 1.00268861,
        "meta_eccentricity": 0.00017057,
        "meta_inclination": 6.4364,
        "meta_ra_of_asc_node": 71.5131,
        "meta_arg_of_pericenter": 207.4869,
        "meta_mean_anomaly": 353.0709,
        "meta_ephemeris_type": 0,
        "meta_classification_type": "U",
        "meta_norad_cat_id": 27380,
        "meta_element_set_no": 999,
        "meta_rev_at_epoch": 4982,
        "meta_bstar": 0,
        "meta_mean_motion_dot": -2.19e-06,
        "meta_mean_motion_ddot": 0,
        "tle_line1": "1 27380U 02007A   25339.63581611 -.00000219  00000+0  00000+0 0  9993",
        "tle_line2": "2 27380   6.4364  71.5131 0001705 207.4869 353.0709  1.00268861 49824"
      },
      "geometry": {
        "type": "Point",
        "coordinates": [
          -172.38761780851343,
          5.7775808684983545
        ]
      }
    },
    {
      "type": "Feature",
      "properties": {
        "norad_id": 27426,
        "name": "DIRECTV 5 (TEMPO 1)",
        "group": "intelsat",
        "lat": 2.287379169190466,
        "lon": 108.79134102187277,
        "alt_km": 35801.622589568324,
        "timestamp": "2025-12-06T09:34:16.585207+00:00",
        "meta_object_name": "DIRECTV 5 (TEMPO 1)",
        "meta_object_id": "2002-023A",
        "meta_epoch": "2025-12-05T21:43:55.587936",
        "meta_mean_motion": 1.00271421,
        "meta_eccentricity": 0.00038913,
        "meta_inclination": 4.3838,
        "meta_ra_of_asc_node": 77.7321,
        "meta_arg_of_pericenter": 194.0333,
        "meta_mean_anomaly": 19.0475,
        "meta_ephemeris_type": 0,
        "meta_classification_type": "U",
        "meta_norad_cat_id": 27426,
        "meta_element_set_no": 999,
        "meta_rev_at_epoch": 8618,
        "meta_bstar": 0,
        "meta_mean_motion_dot": -5e-07,
        "meta_mean_motion_ddot": 0,
        "tle_line1": "1 27426U 02023A   25339.90550449 -.00000050  00000+0  00000+0 0  9990",
        "tle_line2": "2 27426   4.3838  77.7321 0003891 194.0333  19.0475  1.00271421 86187"
      },
      "geometry": {
        "type": "Point",
        "coordinates": [
          108.79134102187277,
          2.287379169190466
        ]
      }
    },
    {
      "type": "Feature",
      "properties": {
        "norad_id": 27438,
        "name": "INTELSAT 905 (IS-905)",
        "group": "intelsat",
        "lat": 1.0814577622039094,
        "lon": 81.78519074385879,
        "alt_km": 35798.48324035073,
        "timestamp": "2025-12-06T09:34:16.585219+00:00",
        "meta_object_name": "INTELSAT 905 (IS-905)",
        "meta_object_id": "2002-027A",
        "meta_epoch": "2025-12-03T09:40:44.149728",
        "meta_mean_motion": 1.00273288,
        "meta_eccentricity": 0.00031296,
        "meta_inclination": 6.2606,
        "meta_ra_of_asc_node": 72.1621,
        "meta_arg_of_pericenter": 189.1417,
        "meta_mean_anomaly": 179.1858,
        "meta_ephemeris_type": 0,
        "meta_classification_type": "U",
        "meta_norad_cat_id": 27438,
        "meta_element_set_no": 999,
        "meta_rev_at_epoch": 4940,
        "meta_bstar": 0,
        "meta_mean_motion_dot": 1.09e-06,
        "meta_mean_motion_ddot": 0,
        "tle_line1": "1 27438U 02027A   25337.40328877  .00000109  00000+0  00000+0 0  9992",
        "tle_line2": "2 27438   6.2606  72.1621 0003129 189.1417 179.1858  1.00273288 49408"
      },
      "geometry": {
        "type": "Point",
        "coordinates": [
          81.78519074385879,
          1.0814577622039094
        ]
      }
    },
    {
      "type": "Feature",
      "properties": {
        "norad_id": 27445,
        "name": "GALAXY 3C (G-3C)",
        "group": "intelsat",
        "lat": 2.2530782708286394,
        "lon": 124.08064745828975,
        "alt_km": 35783.395541541,
        "timestamp": "2025-12-06T09:34:16.585238+00:00",
        "meta_object_name": "GALAXY 3C (G-3C)",
        "meta_object_id": "2002-030A",
        "meta_epoch": "2025-12-05T21:48:17.669376",
        "meta_mean_motion": 1.00270565,
        "meta_eccentricity": 0.00012513,
        "meta_inclination": 3.2464,
        "meta_ra_of_asc_node": 80.5743,
        "meta_arg_of_pericenter": 101.7062,
        "meta_mean_anomaly": 124.8895,
        "meta_ephemeris_type": 0,
        "meta_classification_type": "U",
        "meta_norad_cat_id": 27445,
        "meta_element_set_no": 999,
        "meta_rev_at_epoch": 4455,
        "meta_bstar": 0,
        "meta_mean_motion_dot": -1.45e-06,
        "meta_mean_motion_ddot": 0,
        "tle_line1": "1 27445U 02030A   25339.90853784 -.00000145  00000+0  00000+0 0  9992",
        "tle_line2": "2 27445   3.2464  80.5743 0001251 101.7062 124.8895  1.00270565 44557"
      },
      "geometry": {
        "type": "Point",
        "coordinates": [
          124.08064745828975,
          2.2530782708286394
        ]
      }
    },
    {
      "type": "Feature",
      "properties": {
        "norad_id": 27513,
        "name": "INTELSAT 906 (IS-906)",
        "group": "intelsat",
        "lat": -2.503234249051853,
        "lon": -76.93214609537912,
        "alt_km": 35762.8036360344,
        "timestamp": "2025-12-06T09:34:16.585260+00:00",
        "meta_object_name": "INTELSAT 906 (IS-906)",
        "meta_object_id": "2002-041A",
        "meta_epoch": "2025-12-05T20:25:38.610912",
        "meta_mean_motion": 1.00270266,
        "meta_eccentricity": 0.00060537,
        "meta_inclination": 5.3114,
        "meta_ra_of_asc_node": 75.3137,
        "meta_arg_of_pericenter": 187.2816,
        "meta_mean_anomaly": 182.8578,
        "meta_ephemeris_type": 0,
        "meta_classification_type": "U",
        "meta_norad_cat_id": 27513,
        "meta_element_set_no": 999,
        "meta_rev_at_epoch": 8509,
        "meta_bstar": 0,
        "meta_mean_motion_dot": 2e-07,
        "meta_mean_motion_ddot": 0,
        "tle_line1": "1 27513U 02041A   25339.85114133  .00000020  00000+0  00000+0 0  9993",
        "tle_line2": "2 27513   5.3114  75.3137 0006053 187.2816 182.8578  1.00270266 85092"
      },
      "geometry": {
        "type": "Point",
        "coordinates": [
          -76.93214609537912,
          -2.503234249051853
        ]
      }
    }
  ]
}